NORAD_CAT_ID,OBJECT_NAME,OBJECT_TYPE,EPOCH,MEAN_MOTION,ECCENTRICITY,INCLINATION,RA_OF_ASC_NODE,ARG_OF_PERICENTER,MEAN_ANOMALY,BSTAR,MEAN_MOTION_DOT,MEAN_MOTION_DDOT,TLE_LINE0,TLE_LINE1,TLE_LINE2,SEMIMAJOR_AXIS,PERIOD,APOGEE,PERIGEE,DECAYED
52485.0,STARLINK-3913,PAYLOAD,2022-09-17 14:47:48,15.0884155,0.0001556,53.2171,346.2061,53.9335,306.1801,5.4426e-05,5.78e-06,0.0,0 STARLINK-3913,1 52485U 22049AL  22260.61653871  .00000578  00000-0  54426-4 0  9995,2 52485  53.2171 346.2061 0001556  53.9335 306.1801 15.08841550 20808,6917.876,95.437,540.817,538.664,0.0
52485.0,STARLINK-3913,PAYLOAD,2022-09-18 11:27:50,15.08818987,0.0001475,53.218,342.3405,55.3432,304.7699,0.00031082,4.659e-05,0.0,0 STARLINK-3913,1 52485U 22049AL  22261.47767201  .00004659  00000-0  31082-3 0  9999,2 52485  53.2180 342.3405 0001475  55.3432 304.7699 15.08818987 21090,6917.945,95.439,540.83,538.789,0.0
52485.0,STARLINK-3913,PAYLOAD,2022-09-18 13:03:13,15.08837351,0.0001524,53.2181,342.0433,59.737,300.3773,7.3513e-05,8.82e-06,0.0,0 STARLINK-3913,1 52485U 22049AL  22261.54390527  .00000882  00000-0  73513-4 0  9990,2 52485  53.2181 342.0433 0001524  59.7370 300.3773 15.08837351 20947,6917.888000000001,95.438,540.808,538.6990000000002,0.0
52485.0,STARLINK-3913,PAYLOAD,2022-09-18 14:38:36,15.08837227,0.0001749,53.2195,341.7451,57.5422,302.5739,8.7295e-05,1.101e-05,0.0,0 STARLINK-3913,1 52485U 22049AL  22261.61014576  .00001101  00000-0  87295-4 0  9992,2 52485  53.2195 341.7451 0001749  57.5422 302.5739 15.08837227 20950,6917.889,95.438,540.964,538.544,0.0
52485.0,STARLINK-3913,PAYLOAD,2022-09-19 11:18:36,15.08843,0.0001607,53.2185,337.8830000000001,55.6007,304.5137,7.7128e-05,9.4e-06,0.0,0 STARLINK-3913,1 52485U 22049AL  22262.47125927  .00000940  00000-0  77128-4 0  9994,2 52485  53.2185 337.8830 0001607  55.6007 304.5137 15.08843000 21240,6917.871,95.437,540.8480000000002,538.625,0.0
52485.0,STARLINK-3913,PAYLOAD,2022-09-19 14:29:22,15.08844847,0.0001575,53.2178,337.2869,52.9731,307.1405,7.1548e-05,8.51e-06,0.0,0 STARLINK-3913,1 52485U 22049AL  22262.60373772  .00000851  00000-0  71548-4 0  9993,2 52485  53.2178 337.2869 0001575  52.9731 307.1405 15.08844847 21108,6917.866,95.437,540.82,538.641,0.0
52485.0,STARLINK-3913,PAYLOAD,2022-09-20 04:47:51,15.08837533,0.0001629,53.2182,334.6102,53.312,306.8022,0.00010028,1.308e-05,0.0,0 STARLINK-3913,1 52485U 22049AL  22263.19990192  .00001308  00000-0  10028-3 0  9992,2 52485  53.2182 334.6102 0001629  53.3120 306.8022 15.08837533 21353,6917.888000000001,95.438,540.88,538.626,0.0
52485.0,STARLINK-3913,PAYLOAD,2022-09-21 11:00:11,15.08841876,0.0001705,53.2177,328.9605,53.8844,306.2306,3.1039e-05,2.06e-06,0.0,0 STARLINK-3913,1 52485U 22049AL  22264.45846075  .00000206  00000-0  31039-4 0  9994,2 52485  53.2177 328.9605 0001705  53.8844 306.2306 15.08841876 21549,6917.875,95.437,540.919,538.56,0.0
52485.0,STARLINK-3913,PAYLOAD,2022-09-21 14:10:57,15.08840728,0.0001653,53.2181,328.3663,51.0885,309.0254,-5.5834e-07,-2.97e-06,0.0,0 STARLINK-3913,1 52485U 22049AL  22264.59094207 -.00000297  00000-0 -55834-6 0  9994,2 52485  53.2181 328.3663 0001653  51.0885 309.0254 15.08840728 21402,6917.878000000002,95.438,540.887,538.6,0.0
52485.0,STARLINK-3913,PAYLOAD,2022-09-23 10:41:45,15.08832203,0.0001717,53.2178,320.0395,51.2736,308.8409,7.931900000000001e-06,-1.62e-06,0.0,0 STARLINK-3913,1 52485U 22049AL  22266.44567074 -.00000162  00000-0  79319-5 0  9990,2 52485  53.2178 320.0395 0001717  51.2736 308.8409 15.08832203 21685,6917.904,95.438,540.957,538.581,0.0
52485.0,STARLINK-3913,PAYLOAD,2022-09-23 20:14:04,15.0883369,0.0001785,53.2177,318.2545,48.6912,311.4234,3.7954e-05,3.16e-06,0.0,0 STARLINK-3913,1 52485U 22049AL  22266.84311062  .00000316  00000-0  37954-4 0  9996,2 52485  53.2177 318.2545 0001785  48.6912 311.4234 15.08833690 21745,6917.9,95.438,541.0,538.53,0.0
52485.0,STARLINK-3913,PAYLOAD,2022-09-24 10:32:32,15.08839933,0.0001898,53.2171,315.5772,47.7528,312.3625,0.0001692,2.406e-05,0.0,0 STARLINK-3913,1 52485U 22049AL  22267.43926313  .00002406  00000-0  16920-3 0  9994,2 52485  53.2171 315.5772 0001898  47.7528 312.3625 15.08839933 21996,6917.880999999999,95.438,541.059,538.433,0.0
52485.0,STARLINK-3913,PAYLOAD,2022-09-24 20:04:52,15.08831288,0.0002066999999999,53.2168,313.7902,42.7478,317.3674,6.2903e-05,7.13e-06,0.0,0 STARLINK-3913,1 52485U 22049AL  22267.83671341  .00000713  00000-0  62903-4 0  9998,2 52485  53.2168 313.7902 0002067  42.7478 317.3674 15.08831288 21898,6917.906999999997,95.438,541.202,538.342,0.0
52485.0,STARLINK-3913,PAYLOAD,2022-09-25 10:23:19,15.08834354,0.000239,53.2177,311.1113,37.0959,323.0198,0.00016163,2.285e-05,0.0,0 STARLINK-3913,1 52485U 22049AL  22268.43286985  .00002285  00000-0  16163-3 0  9993,2 52485  53.2177 311.1113 0002390  37.0959 323.0198 15.08834354 21986,6917.898,95.438,541.4159999999998,538.109,0.0
52485.0,STARLINK-3913,PAYLOAD,2022-09-25 15:09:29,15.08831124,0.0002096,53.2181,310.2238,49.145,310.9723,0.00025532,3.777e-05,0.0,0 STARLINK-3913,1 52485U 22049AL  22268.63159018  .00003777  00000-0  25532-3 0  9998,2 52485  53.2181 310.2238 0002096  49.1450 310.9723 15.08831124 22018,6917.908,95.438,541.2230000000002,538.323,0.0
52485.0,STARLINK-3913,PAYLOAD,2022-09-26 07:03:21,15.08827886,0.0001077,53.2175,307.2501,64.2496,295.8607,-3.8671e-05,-9.03e-06,0.0,0 STARLINK-3913,1 52485U 22049AL  22269.29400055 -.00000903  00000-0 -38671-4 0  9990,2 52485  53.2175 307.2501 0001077  64.2496 295.8607 15.08827886 22276,6917.917,95.438,540.5269999999998,539.0369999999998,0.0
52485.0,STARLINK-3913,PAYLOAD,2022-09-26 08:38:44,15.08835504,0.000125,53.2173,306.9525,81.5418,278.5716,-5.5244e-05,-1.167e-05,0.0,0 STARLINK-3913,1 52485U 22049AL  22269.36023701 -.00001167  00000-0 -55244-4 0  9995,2 52485  53.2173 306.9525 0001250  81.5418 278.5716 15.08835504 22281,6917.894,95.438,540.624,538.894,0.0
52485.0,STARLINK-3913,PAYLOAD,2022-09-26 19:46:27,15.088236800000002,0.0002028,53.2189,304.8691,50.8182,309.2990000000001,-0.00010075,-1.891e-05,0.0,0 STARLINK-3913,1 52485U 22049AL  22269.82393041 -.00001891  00000-0 -10075-3 0  9999,2 52485  53.2189 304.8691 0002028  50.8182 309.2990 15.08823680 22198,6917.93,95.439,541.198,538.3919999999998,0.0
52485.0,STARLINK-3913,PAYLOAD,2022-09-27 08:29:32,15.08825098,0.0001474,53.2179,302.4927,40.8547,319.2556,-2.9287e-05,-7.54e-06,0.0,0 STARLINK-3913,1 52485U 22049AL  22270.35385233 -.00000754  00000-0 -29287-4 0  9996,2 52485  53.2179 302.4927 0001474  40.8547 319.2556 15.08825098 22274,6917.926,95.438,540.811,538.771,0.0
52485.0,STARLINK-3913,PAYLOAD,2022-09-28 01:58:46,15.08836664,0.0001595,53.2175,299.2231,47.1565,312.9561,0.0001585999999999,2.237e-05,0.0,0 STARLINK-3913,1 52485U 22049AL  22271.08248379  .00002237  00000-0  15860-3 0  9993,2 52485  53.2175 299.2231 0001595  47.1565 312.9561 15.08836664 22542,6917.891,95.438,540.859,538.6519999999998,0.0
52485.0,STARLINK-3913,PAYLOAD,2022-09-28 08:20:18,15.08839404,0.0001701,53.2167,298.0339,52.5141,307.6006,0.00028518,4.253e-05,0.0,0 STARLINK-3913,1 52485U 22049AL  22271.34744131  .00004253  00000-0  28518-3 0  9993,2 52485  53.2167 298.0339 0001701  52.5141 307.6006 15.08839404 22425,6917.882,95.438,540.924,538.57,0.0
52485.0,STARLINK-3913,PAYLOAD,2022-09-29 08:11:06,15.08841134,0.0001819,53.2166,293.5752,42.5779,317.5354,7.8412e-05,9.6e-06,0.0,0 STARLINK-3913,1 52485U 22049AL  22272.34105012  .00000960  00000-0  78412-4 0  9993,2 52485  53.2166 293.5752 0001819  42.5779 317.5354 15.08841134 22574,6917.877,95.437,541.0,538.484,0.0
52485.0,STARLINK-3913,PAYLOAD,2022-09-30 08:01:53,15.08847374,0.0001883,53.2165,289.113,49.8608,310.2548,5.0442e-05,5.15e-06,0.0,0 STARLINK-3913,1 52485U 22049AL  22273.33464869  .00000515  00000-0  50442-4 0  9990,2 52485  53.2165 289.1130 0001883  49.8608 310.2548 15.08847374 22720,6917.858,95.437,541.025,538.42,0.0
52485.0,STARLINK-3913,PAYLOAD,2022-09-30 17:34:11,15.08855838,0.0001940999999999,53.217,287.3302,49.4427,310.6734,7.8446e-05,9.61e-06,0.0,0 STARLINK-3913,1 52485U 22049AL  22273.73208124  .00000961  00000-0  78446-4 0  9993,2 52485  53.2170 287.3302 0001941  49.4427 310.6734 15.08855838 22788,6917.831999999999,95.437,541.04,538.354,0.0
52485.0,STARLINK-3913,PAYLOAD,2022-10-01 04:41:53,15.0885469,0.0001925,53.2148,285.2454,44.3212,315.7934,0.00023445,3.447e-05,0.0,0 STARLINK-3913,1 52485U 22049AL  22274.19576115  .00003447  00000-0  23445-3 0  9992,2 52485  53.2148 285.2454 0001925  44.3212 315.7934 15.08854690 23016,6917.835,95.437,541.0319999999998,538.369,0.0
52485.0,STARLINK-3913,PAYLOAD,2022-10-01 11:03:26,15.08850519,0.0001959,53.2155,284.0566,49.7178,310.3985,0.00021527,3.141e-05,0.0,0 STARLINK-3913,1 52485U 22049AL  22274.46072332  .00003141  00000-0  21527-3 0  9994,2 52485  53.2155 284.0566 0001959  49.7178 310.3985 15.08850519 22890,6917.848000000001,95.437,541.068,538.3580000000002,0.0
52485.0,STARLINK-3913,PAYLOAD,2022-10-01 17:24:58,15.08856242,0.0001983,53.2156,282.8673,45.7342,314.3812,0.00035316,5.339e-05,0.0,0 STARLINK-3913,1 52485U 22049AL  22274.72568003  .00005339  00000-0  35316-3 0  9990,2 52485  53.2156 282.8673 0001983  45.7342 314.3812 15.08856242 22939,6917.831,95.437,541.068,538.3240000000002,0.0
52485.0,STARLINK-3913,PAYLOAD,2022-10-02 04:32:40,15.088467499999998,0.0001876999999999,53.2166,280.7855,51.5542,308.5619,6.1065e-05,6.84e-06,0.0,0 STARLINK-3913,1 52485U 22049AL  22275.18935955  .00000684  00000-0  61065-4 0  9994,2 52485  53.2166 280.7855 0001877  51.5542 308.5619 15.08846750 23167,6917.86,95.437,541.023,538.4259999999998,0.0
52485.0,STARLINK-3913,PAYLOAD,2022-10-02 10:54:13,15.088340900000002,0.0001989,53.2155,279.5962,48.1914,311.9248,-0.00011895,-2.181e-05,0.0,0 STARLINK-3913,1 52485U 22049AL  22275.45432691 -.00002181  00000-0 -11895-3 0  9994,2 52485  53.2155 279.5962 0001989  48.1914 311.9248 15.08834090 23046,6917.898,95.438,541.139,538.387,0.0
